[{"OBJECT_NAME":"STARLINK-36555","OBJECT_ID":"2026-012E","EPOCH":"2026-03-08T17:41:25.157472","MEAN_MOTION":15.27597001,"ECCENTRICITY":6.75e-5,"INCLINATION":42.9956,"RA_OF_ASC_NODE":320.0039,"ARG_OF_PERICENTER":70.5265,"MEAN_ANOMALY":289.566,"EPHEMERIS_TYPE":0,"CLASSIFICATION_TYPE":"U","NORAD_CAT_ID":67497,"ELEMENT_SET_NO":999,"REV_AT_EPOCH":761,"BSTAR":0.0013564559,"MEAN_MOTION_DOT":0.00037273,"MEAN_MOTION_DDOT":0},{"OBJECT_NAME":"NOAA 17 DEB","OBJECT_ID":"2002-032AF","EPOCH":"2026-03-09T00:24:06.552000","MEAN_MOTION":15.25501717,"ECCENTRICITY":0.00030847,"INCLINATION":98.6472,"RA_OF_ASC_NODE":92.5947,"ARG_OF_PERICENTER":165.9893,"MEAN_ANOMALY":194.1428,"EPHEMERIS_TYPE":0,"CLASSIFICATION_TYPE":"U","NORAD_CAT_ID":48614,"ELEMENT_SET_NO":999,"REV_AT_EPOCH":26420,"BSTAR":0.01090047,"MEAN_MOTION_DOT":0.00286783,"MEAN_MOTION_DDOT":0}]
